ONEWEB-0338             
1 49204U 21083U   23265.64279790  .00000089  00000+0  18593-3 0  9990
2 49204  87.9167 113.2698 0002269  79.3791 280.7598 13.20772735106300
ONEWEB-0339             
1 49205U 21083V   23265.51463899 -.00000154  00000+0 -45546-3 0  9995
2 49205  87.9069 158.9261 0001814  69.2840 290.8484 13.13473610 99794
ONEWEB-0340             
1 49206U 21083W   23265.75066897 -.00000727  00000+0 -18760-2 0  9992
2 49206  87.9228 174.0431 0001945  65.9236 294.2099 13.18692212 99670
ONEWEB-0341             
1 49207U 21083X   23265.30385309  .00000107  00000+0  23963-3 0  9998
2 49207  87.9311 174.0854 0001994  50.0437 310.0870 13.18685797 98342
ONEWEB-0342             
1 49208U 21083Y   23265.57335414 -.00000012  00000+0 -61524-4 0  9993
2 49208  87.9160 113.3159 0002006  81.9933 278.1428 13.20771666104961
ONEWEB-0343             
1 49209U 21083Z   23265.75489920  .00000019  00000+0  14723-4 0  9990
2 49209  87.9297 174.0282 0002345  47.6409 312.4921 13.18686139 99743
ONEWEB-0344             
1 49210U 21083AA  23265.70826051  .00000200  00000+0  51175-3 0  9990
2 49210  87.9070 158.8938 0001521  76.4480 283.6818 13.13466810101123
ONEWEB-0345             
1 49211U 21083AB  23265.19300233 -.00001371  00000+0 -37903-2 0  9997
2 49211  87.9072 158.9819 0001528  68.0508 292.0784 13.13477439 99761
